[{"OBJECT_NAME":"STARLINK-6033","OBJECT_ID":"2023-058F","EPOCH":"2026-03-09T22:34:45.661728","MEAN_MOTION":15.0195756,"ECCENTRICITY":0.00025539,"INCLINATION":97.604,"RA_OF_ASC_NODE":70.3892,"ARG_OF_PERICENTER":78.216,"MEAN_ANOMALY":281.9351,"EPHEMERIS_TYPE":0,"CLASSIFICATION_TYPE":"U","NORAD_CAT_ID":56322,"ELEMENT_SET_NO":999,"REV_AT_EPOCH":15781,"BSTAR":0.0054094517,"MEAN_MOTION_DOT":0.00071427,"MEAN_MOTION_DDOT":0},{"OBJECT_NAME":"CZ-4B DEB","OBJECT_ID":"2008-053J","EPOCH":"2026-03-09T11:59:22.469568","MEAN_MOTION":15.1637526,"ECCENTRICITY":0.00601661,"INCLINATION":97.7872,"RA_OF_ASC_NODE":170.5072,"ARG_OF_PERICENTER":304.792,"MEAN_ANOMALY":54.7659,"EPHEMERIS_TYPE":0,"CLASSIFICATION_TYPE":"U","NORAD_CAT_ID":35573,"ELEMENT_SET_NO":999,"REV_AT_EPOCH":91868,"BSTAR":0.0017688276,"MEAN_MOTION_DOT":0.00036031,"MEAN_MOTION_DDOT":0}]
